{
    "links": {
        "self": "http://www.neowsapp.com/rest/v1/neo/3841898?api_key=iIulBulltgU6a56xZRHN4H3l9WmuAYTsLGpBGhQ2"
    },
    "id": "3841898",
    "neo_reference_id": "3841898",
    "name": "(2019 JA7)",
    "designation": "2019 JA7",
    "nasa_jpl_url": "http://ssd.jpl.nasa.gov/sbdb.cgi?sstr=3841898",
    "absolute_magnitude_h": 22.5,
    "estimated_diameter": {
        "kilometers": {
            "estimated_diameter_min": 0.0840533402,
            "estimated_diameter_max": 0.1879489824
        },
        "meters": {
            "estimated_diameter_min": 84.0533402073,
            "estimated_diameter_max": 187.9489824394
        },
        "miles": {
            "estimated_diameter_min": 0.0522283081,
            "estimated_diameter_max": 0.1167860472
        },
        "feet": {
            "estimated_diameter_min": 275.7655606856,
            "estimated_diameter_max": 616.6305395464
        }
    },
    "is_potentially_hazardous_asteroid": false,
    "close_approach_data": [
        {
            "close_approach_date": "2019-05-27",
            "close_approach_date_full": "2019-May-27 23:35",
            "epoch_date_close_approach": 1559000100000,
            "relative_velocity": {
                "kilometers_per_second": "25.5162136366",
                "kilometers_per_hour": "91858.3690916563",
                "miles_per_hour": "57077.2182836461"
            },
            "miss_distance": {
                "astronomical": "0.1948462535",
                "lunar": "75.7951926115",
                "kilometers": "29148584.501080045",
                "miles": "18112090.540172821"
            },
            "orbiting_body": "Earth"
        },
        {
            "close_approach_date": "2196-06-05",
            "close_approach_date_full": "2196-Jun-05 03:24",
            "epoch_date_close_approach": 7145378640000,
            "relative_velocity": {
                "kilometers_per_second": "18.8486963691",
                "kilometers_per_hour": "67855.3069286963",
                "miles_per_hour": "42162.6489080002"
            },
            "miss_distance": {
                "astronomical": "0.4883181495",
                "lunar": "189.9557601555",
                "kilometers": "73051355.047541565",
                "miles": "45392007.171200997"
            },
            "orbiting_body": "Earth"
        }
    ],
    "orbital_data": {
        "orbit_id": "2",
        "orbit_determination_date": "2019-05-24 07:11:24",
        "first_observation_date": "2019-05-09",
        "last_observation_date": "2019-05-24",
        "data_arc_in_days": 15,
        "observations_used": 21,
        "orbit_uncertainty": "9",
        "minimum_orbit_intersection": ".0602147",
        "jupiter_tisserand_invariant": "3.725",
        "epoch_osculation": "2458614.5",
        "eccentricity": ".8403474115884213",
        "semi_major_axis": "1.657160239145741",
        "inclination": "17.14285644741432",
        "ascending_node_longitude": "48.25518093920192",
        "orbital_period": "779.1932536570102",
        "perihelion_distance": ".2645699215923683",
        "perihelion_argument": "319.9495760735816",
        "aphelion_distance": "3.049750556699113",
        "perihelion_time": "2458679.027527277060",
        "mean_anomaly": "330.1872292775688",
        "mean_motion": ".4620163204832711",
        "equinox": "J2000",
        "orbit_class": {
            "orbit_class_type": "APO",
            "orbit_class_description": "Near-Earth asteroid orbits which cross the Earth’s orbit similar to that of 1862 Apollo",
            "orbit_class_range": "a (semi-major axis) > 1.0 AU; q (perihelion) < 1.017 AU"
        }
    },
    "is_sentry_object": false
}